[
    {
        "Altitude(m)": 706560.366030093,
        "Argument of Periapsis(deg)": 0.004556048474650827,
        "Eccentricity": 0.0,
        "Inclination(deg)": 45.0,
        "Latitude(deg)": 41.81116261644628,
        "Longitude(deg)": 62.53753262403554,
        "Mean Anomaly(deg)": 70.06778665899232,
        "RAAN(deg)": 99.99569922341672,
        "Satellite Name": "Constellation 1 444",
        "Satellite Number": 444,
        "Semi-Major Axis(m)": 7083131.272910544,
        "Time(s)": 76
    },
    {
        "Altitude(m)": 706564.6786244065,
        "Argument of Periapsis(deg)": 0.004615996480896233,
        "Eccentricity": 0.0,
        "Inclination(deg)": 45.0,
        "Latitude(deg)": 41.83078969087325,
        "Longitude(deg)": 62.61037345687674,
        "Mean Anomaly(deg)": 70.12848779924225,
        "RAAN(deg)": 99.99564263425114,
        "Satellite Name": "Constellation 1 444",
        "Satellite Number": 444,
        "Semi-Major Axis(m)": 7083131.272910544,
        "Time(s)": 77
    },
    {
        "Altitude(m)": 706568.9809683363,
        "Argument of Periapsis(deg)": 0.004675944487141638,
        "Eccentricity": 0.0,
        "Inclination(deg)": 45.0,
        "Latitude(deg)": 41.85036513629935,
        "Longitude(deg)": 62.68326121987493,
        "Mean Anomaly(deg)": 70.1891889394921,
        "RAAN(deg)": 99.99558604508557,
        "Satellite Name": "Constellation 1 444",
        "Satellite Number": 444,
        "Semi-Major Axis(m)": 7083131.272910544,
        "Time(s)": 78
    },
    {
        "Altitude(m)": 706573.273036199,
        "Argument of Periapsis(deg)": 0.004735892493387044,
        "Eccentricity": 0.0,
        "Inclination(deg)": 45.0,
        "Latitude(deg)": 41.869888886451825,
        "Longitude(deg)": 62.75619585017812,
        "Mean Anomaly(deg)": 70.249890079742,
        "RAAN(deg)": 99.99552945592002,
        "Satellite Name": "Constellation 1 444",
        "Satellite Number": 444,
        "Semi-Major Axis(m)": 7083131.272910544,
        "Time(s)": 79
    },
    {
        "Altitude(m)": 706577.5548023746,
        "Argument of Periapsis(deg)": 0.004795840499632449,
        "Eccentricity": 0.0,
        "Inclination(deg)": 45.0,
        "Latitude(deg)": 41.88936087512877,
        "Longitude(deg)": 62.82917728438902,
        "Mean Anomaly(deg)": 70.3105912199919,
        "RAAN(deg)": 99.99547286675444,
        "Satellite Name": "Constellation 1 444",
        "Satellite Number": 444,
        "Semi-Major Axis(m)": 7083131.272910544,
        "Time(s)": 80
    },
    {
        "Altitude(m)": 706581.8262413128,
        "Argument of Periapsis(deg)": 0.004855788505877855,
        "Eccentricity": 0.0,
        "Inclination(deg)": 45.0,
        "Latitude(deg)": 41.90878103619997,
        "Longitude(deg)": 62.9022054585648,
        "Mean Anomaly(deg)": 70.37129236024182,
        "RAAN(deg)": 99.99541627758887,
        "Satellite Name": "Constellation 1 444",
        "Satellite Number": 444,
        "Semi-Major Axis(m)": 7083131.272910544,
        "Time(s)": 81
    },
    {
        "Altitude(m)": 706586.0873275346,
        "Argument of Periapsis(deg)": 0.00491573651212326,
        "Eccentricity": 0.0,
        "Inclination(deg)": 45.0,
        "Latitude(deg)": 41.92814930360767,
        "Longitude(deg)": 62.97528014011894,
        "Mean Anomaly(deg)": 70.43199350049173,
        "RAAN(deg)": 99.99535968842329,
        "Satellite Name": "Constellation 1 444",
        "Satellite Number": 444,
        "Semi-Major Axis(m)": 7083131.272910544,
        "Time(s)": 82
    },
    {
        "Altitude(m)": 706590.338035616,
        "Argument of Periapsis(deg)": 0.004975684518368666,
        "Eccentricity": 0.0,
        "Inclination(deg)": 45.0,
        "Latitude(deg)": 41.947465611367974,
        "Longitude(deg)": 63.048401600209544,
        "Mean Anomaly(deg)": 70.49269464074162,
        "RAAN(deg)": 99.99530309925774,
        "Satellite Name": "Constellation 1 444",
        "Satellite Number": 444,
        "Semi-Major Axis(m)": 7083131.272910544,
        "Time(s)": 83
    },
    {
        "Altitude(m)": 706594.5783402018,
        "Argument of Periapsis(deg)": 0.005035632524614072,
        "Eccentricity": 0.0,
        "Inclination(deg)": 45.0,
        "Latitude(deg)": 41.966729893570786,
        "Longitude(deg)": 63.121569605155194,
        "Mean Anomaly(deg)": 70.55339578099152,
        "RAAN(deg)": 99.99524651009217,
        "Satellite Name": "Constellation 1 444",
        "Satellite Number": 444,
        "Semi-Major Axis(m)": 7083131.272910544,
        "Time(s)": 84
    },
    {
        "Altitude(m)": 706598.8082160124,
        "Argument of Periapsis(deg)": 0.0050955805308594785,
        "Eccentricity": 0.0,
        "Inclination(deg)": 45.0,
        "Latitude(deg)": 41.985942084381286,
        "Longitude(deg)": 63.19478408882347,
        "Mean Anomaly(deg)": 70.61409692124143,
        "RAAN(deg)": 99.99518992092659,
        "Satellite Name": "Constellation 1 444",
        "Satellite Number": 444,
        "Semi-Major Axis(m)": 7083131.272910544,
        "Time(s)": 85
    },
    {
        "Altitude(m)": 706603.0276378163,
        "Argument of Periapsis(deg)": 0.005155528537104883,
        "Eccentricity": 0.0,
        "Inclination(deg)": 45.0,
        "Latitude(deg)": 42.00510211804052,
        "Longitude(deg)": 63.26804498453265,
        "Mean Anomaly(deg)": 70.67479806149134,
        "RAAN(deg)": 99.99513333176102,
        "Satellite Name": "Constellation 1 444",
        "Satellite Number": 444,
        "Semi-Major Axis(m)": 7083131.272910544,
        "Time(s)": 86
    },
    {
        "Altitude(m)": 706607.236580464,
        "Argument of Periapsis(deg)": 0.0052154765433502885,
        "Eccentricity": 0.0,
        "Inclination(deg)": 45.0,
        "Latitude(deg)": 42.02420992886636,
        "Longitude(deg)": 63.34135222505143,
        "Mean Anomaly(deg)": 70.7354992017412,
        "RAAN(deg)": 99.99507674259544,
        "Satellite Name": "Constellation 1 444",
        "Satellite Number": 444,
        "Semi-Major Axis(m)": 7083131.272910544,
        "Time(s)": 87
    },
    {
        "Altitude(m)": 706611.4350188638,
        "Argument of Periapsis(deg)": 0.005275424549595694,
        "Eccentricity": 0.0,
        "Inclination(deg)": 45.0,
        "Latitude(deg)": 42.04326545125444,
        "Longitude(deg)": 63.41470574259825,
        "Mean Anomaly(deg)": 70.7962003419911,
        "RAAN(deg)": 99.99502015342988,
        "Satellite Name": "Constellation 1 444",
        "Satellite Number": 444,
        "Semi-Major Axis(m)": 7083131.272910544,
        "Time(s)": 88
    },
    {
        "Altitude(m)": 706615.6229279925,
        "Argument of Periapsis(deg)": 0.0053353725558411,
        "Eccentricity": 0.0,
        "Inclination(deg)": 45.0,
        "Latitude(deg)": 42.06226861967857,
        "Longitude(deg)": 63.48810530074313,
        "Mean Anomaly(deg)": 70.856901482241,
        "RAAN(deg)": 99.99496356426432,
        "Satellite Name": "Constellation 1 444",
        "Satellite Number": 444,
        "Semi-Major Axis(m)": 7083131.272910544,
        "Time(s)": 89
    },
    {
        "Altitude(m)": 706619.8002828899,
        "Argument of Periapsis(deg)": 0.005395320562086505,
        "Eccentricity": 0.0,
        "Inclination(deg)": 45.0,
        "Latitude(deg)": 42.0812193686925,
        "Longitude(deg)": 63.56155116679662,
        "Mean Anomaly(deg)": 70.91760262249092,
        "RAAN(deg)": 99.99490697509874,
        "Satellite Name": "Constellation 1 444",
        "Satellite Number": 444,
        "Semi-Major Axis(m)": 7083131.272910544,
        "Time(s)": 90
    },
    {
        "Altitude(m)": 706623.9670586733,
        "Argument of Periapsis(deg)": 0.00545526856833191,
        "Eccentricity": 0.0,
        "Inclination(deg)": 45.0,
        "Latitude(deg)": 42.10011763292964,
        "Longitude(deg)": 63.63504310322517,
        "Mean Anomaly(deg)": 70.97830376274084,
        "RAAN(deg)": 99.99485038593318,
        "Satellite Name": "Constellation 1 444",
        "Satellite Number": 444,
        "Semi-Major Axis(m)": 7083131.272910544,
        "Time(s)": 91
    },
    {
        "Altitude(m)": 706628.1232305096,
        "Argument of Periapsis(deg)": 0.005515216574577317,
        "Eccentricity": 0.0,
        "Inclination(deg)": 45.0,
        "Latitude(deg)": 42.11896334710465,
        "Longitude(deg)": 63.7085810400397,
        "Mean Anomaly(deg)": 71.03900490299071,
        "RAAN(deg)": 99.9947937967676,
        "Satellite Name": "Constellation 1 444",
        "Satellite Number": 444,
        "Semi-Major Axis(m)": 7083131.272910544,
        "Time(s)": 92
    },
    {
        "Altitude(m)": 706632.2687736453,
        "Argument of Periapsis(deg)": 0.005575164580822722,
        "Eccentricity": 0.0,
        "Inclination(deg)": 45.0,
        "Latitude(deg)": 42.13775644601418,
        "Longitude(deg)": 63.78216490669802,
        "Mean Anomaly(deg)": 71.09970604324062,
        "RAAN(deg)": 99.99473720760203,
        "Satellite Name": "Constellation 1 444",
        "Satellite Number": 444,
        "Semi-Major Axis(m)": 7083131.272910544,
        "Time(s)": 93
    },
    {
        "Altitude(m)": 706636.4036633943,
        "Argument of Periapsis(deg)": 0.005635112587068129,
        "Eccentricity": 0.0,
        "Inclination(deg)": 45.0,
        "Latitude(deg)": 42.15649686453755,
        "Longitude(deg)": 63.85579463210408,
        "Mean Anomaly(deg)": 71.1604071834905,
        "RAAN(deg)": 99.99468061843646,
        "Satellite Name": "Constellation 1 444",
        "Satellite Number": 444,
        "Semi-Major Axis(m)": 7083131.272910544,
        "Time(s)": 94
    }
]